2025-155V               
1 64895U 25155V   26068.85787115  .00013705  00000+0  51002-3 0  9990
2 64895  97.4485  37.2490 0008035 152.8264 207.3397 15.27583301 65579
STARLINK-36186          
1 67165U 25303C   26068.06694511  .00039617  00000+0  14413-2 0  9992
2 67165  43.0028 313.9149 0001745 273.9123  86.1529 15.27582949 12644
